LEMUR-2-PETERG          
1 42841U 17042S   26068.48235713  .00023240  00000+0  81076-3 0  9993
2 42841  97.3980 253.6596 0003700 341.6938  18.4169 15.29611459473171
STARLINK-33976          
1 63858U 25093Y   26068.43701370  .00034057  00000+0  12395-2 0  9996
2 63858  43.0078  79.2845 0004186 284.0658  75.9728 15.27624713 47772
